ONEWEB-0607             
1 54671U 22166AF  24330.11575578  .00000156  00000+0  34587-3 0  9992
2 54671  87.9308 357.3318 0002108  96.0504 264.0871 13.21824169 96364
ONEWEB-0608             
1 54672U 22166AG  24330.50054267  .00000207  00000+0  46963-3 0  9991
2 54672  87.9293 357.2800 0002302 103.2140 256.9251 13.21823555 96883
ONEWEB-0610             
1 54673U 22166AH  24330.48161162  .00000045  00000+0  77832-4 0  9992
2 54673  87.9309 357.2771 0002288 106.2995 253.8391 13.21827427 96325
ONEWEB-0611             
1 54674U 22166AJ  24330.55101593  .00001319  00000+0  31617-2 0  9997
2 54674  87.9307 357.2607 0001774  82.9670 277.1665 13.21819540 96792
ONEWEB-0612             
1 54675U 22166AK  24330.10943267 -.00000404  00000+0 -10105-2 0  9996
2 54675  87.9308 357.3294 0002033  96.6733 263.4632 13.21824748 96257
ONEWEB-0615             
1 54676U 22166AL  24330.09052010  .00000160  00000+0  35577-3 0  9990
2 54676  87.9306 357.3584 0002131  97.4609 262.6767 13.21824219 96262
ONEWEB-0655             
1 54677U 22166AM  24330.51789334  .00000266  00000+0  61260-3 0  9999
2 54677  87.9310 357.2768 0002216  89.9762 270.1626 13.21824249 96318
ONEWEB-0659             
1 54678U 22166AN  24330.53524201  .00000027  00000+0  34652-4 0  9993
2 54678  87.9308 357.2769 0001682  98.0347 262.0978 13.21826488 96400
