<?xml version="1.0" encoding="UTF-8"?>
<ndm xmlns:xsi="http://www.w3.org/2001/XMLSchema-instance" xsi:noNamespaceSchemaLocation="https://sanaregistry.org/r/ndmxml_unqualified/ndmxml-2.0.0-master-2.0.xsd">
<omm id="CCSDS_OMM_VERS" version="2.0">
<header><CREATION_DATE/><ORIGINATOR/></header><body><segment><metadata><OBJECT_NAME>ONEWEB-0607</OBJECT_NAME><OBJECT_ID>2022-166AF</OBJECT_ID><CENTER_NAME>EARTH</CENTER_NAME><REF_FRAME>TEME</REF_FRAME><TIME_SYSTEM>UTC</TIME_SYSTEM><MEAN_ELEMENT_THEORY>SGP4</MEAN_ELEMENT_THEORY></metadata><data><meanElements><EPOCH>2024-11-25T02:46:41.299392</EPOCH><MEAN_MOTION>13.21824169</MEAN_MOTION><ECCENTRICITY>.0002108</ECCENTRICITY><INCLINATION>87.9308</INCLINATION><RA_OF_ASC_NODE>357.3318</RA_OF_ASC_NODE><ARG_OF_PERICENTER>96.0504</ARG_OF_PERICENTER><MEAN_ANOMALY>264.0871</MEAN_ANOMALY></meanElements><tleParameters><EPHEMERIS_TYPE>0</EPHEMERIS_TYPE><CLASSIFICATION_TYPE>U</CLASSIFICATION_TYPE><NORAD_CAT_ID>54671</NORAD_CAT_ID><ELEMENT_SET_NO>999</ELEMENT_SET_NO><REV_AT_EPOCH>9636</REV_AT_EPOCH><BSTAR>.34587E-3</BSTAR><MEAN_MOTION_DOT>.156E-5</MEAN_MOTION_DOT><MEAN_MOTION_DDOT>0</MEAN_MOTION_DDOT></tleParameters></data></segment></body></omm>
<omm id="CCSDS_OMM_VERS" version="2.0">
<header><CREATION_DATE/><ORIGINATOR/></header><body><segment><metadata><OBJECT_NAME>ONEWEB-0608</OBJECT_NAME><OBJECT_ID>2022-166AG</OBJECT_ID><CENTER_NAME>EARTH</CENTER_NAME><REF_FRAME>TEME</REF_FRAME><TIME_SYSTEM>UTC</TIME_SYSTEM><MEAN_ELEMENT_THEORY>SGP4</MEAN_ELEMENT_THEORY></metadata><data><meanElements><EPOCH>2024-11-25T12:00:46.886688</EPOCH><MEAN_MOTION>13.21823555</MEAN_MOTION><ECCENTRICITY>.0002302</ECCENTRICITY><INCLINATION>87.9293</INCLINATION><RA_OF_ASC_NODE>357.2800</RA_OF_ASC_NODE><ARG_OF_PERICENTER>103.2140</ARG_OF_PERICENTER><MEAN_ANOMALY>256.9251</MEAN_ANOMALY></meanElements><tleParameters><EPHEMERIS_TYPE>0</EPHEMERIS_TYPE><CLASSIFICATION_TYPE>U</CLASSIFICATION_TYPE><NORAD_CAT_ID>54672</NORAD_CAT_ID><ELEMENT_SET_NO>999</ELEMENT_SET_NO><REV_AT_EPOCH>9688</REV_AT_EPOCH><BSTAR>.46963E-3</BSTAR><MEAN_MOTION_DOT>.207E-5</MEAN_MOTION_DOT><MEAN_MOTION_DDOT>0</MEAN_MOTION_DDOT></tleParameters></data></segment></body></omm>
<omm id="CCSDS_OMM_VERS" version="2.0">
<header><CREATION_DATE/><ORIGINATOR/></header><body><segment><metadata><OBJECT_NAME>ONEWEB-0610</OBJECT_NAME><OBJECT_ID>2022-166AH</OBJECT_ID><CENTER_NAME>EARTH</CENTER_NAME><REF_FRAME>TEME</REF_FRAME><TIME_SYSTEM>UTC</TIME_SYSTEM><MEAN_ELEMENT_THEORY>SGP4</MEAN_ELEMENT_THEORY></metadata><data><meanElements><EPOCH>2024-11-25T11:33:31.243968</EPOCH><MEAN_MOTION>13.21827427</MEAN_MOTION><ECCENTRICITY>.0002288</ECCENTRICITY><INCLINATION>87.9309</INCLINATION><RA_OF_ASC_NODE>357.2771</RA_OF_ASC_NODE><ARG_OF_PERICENTER>106.2995</ARG_OF_PERICENTER><MEAN_ANOMALY>253.8391</MEAN_ANOMALY></meanElements><tleParameters><EPHEMERIS_TYPE>0</EPHEMERIS_TYPE><CLASSIFICATION_TYPE>U</CLASSIFICATION_TYPE><NORAD_CAT_ID>54673</NORAD_CAT_ID><ELEMENT_SET_NO>999</ELEMENT_SET_NO><REV_AT_EPOCH>9632</REV_AT_EPOCH><BSTAR>.77832E-4</BSTAR><MEAN_MOTION_DOT>.45E-6</MEAN_MOTION_DOT><MEAN_MOTION_DDOT>0</MEAN_MOTION_DDOT></tleParameters></data></segment></body></omm>
<omm id="CCSDS_OMM_VERS" version="2.0">
<header><CREATION_DATE/><ORIGINATOR/></header><body><segment><metadata><OBJECT_NAME>ONEWEB-0611</OBJECT_NAME><OBJECT_ID>2022-166AJ</OBJECT_ID><CENTER_NAME>EARTH</CENTER_NAME><REF_FRAME>TEME</REF_FRAME><TIME_SYSTEM>UTC</TIME_SYSTEM><MEAN_ELEMENT_THEORY>SGP4</MEAN_ELEMENT_THEORY></metadata><data><meanElements><EPOCH>2024-11-25T13:13:27.776352</EPOCH><MEAN_MOTION>13.21819540</MEAN_MOTION><ECCENTRICITY>.0001774</ECCENTRICITY><INCLINATION>87.9307</INCLINATION><RA_OF_ASC_NODE>357.2607</RA_OF_ASC_NODE><ARG_OF_PERICENTER>82.9670</ARG_OF_PERICENTER><MEAN_ANOMALY>277.1665</MEAN_ANOMALY></meanElements><tleParameters><EPHEMERIS_TYPE>0</EPHEMERIS_TYPE><CLASSIFICATION_TYPE>U</CLASSIFICATION_TYPE><NORAD_CAT_ID>54674</NORAD_CAT_ID><ELEMENT_SET_NO>999</ELEMENT_SET_NO><REV_AT_EPOCH>9679</REV_AT_EPOCH><BSTAR>.31617E-2</BSTAR><MEAN_MOTION_DOT>.1319E-4</MEAN_MOTION_DOT><MEAN_MOTION_DDOT>0</MEAN_MOTION_DDOT></tleParameters></data></segment></body></omm>
<omm id="CCSDS_OMM_VERS" version="2.0">
<header><CREATION_DATE/><ORIGINATOR/></header><body><segment><metadata><OBJECT_NAME>ONEWEB-0612</OBJECT_NAME><OBJECT_ID>2022-166AK</OBJECT_ID><CENTER_NAME>EARTH</CENTER_NAME><REF_FRAME>TEME</REF_FRAME><TIME_SYSTEM>UTC</TIME_SYSTEM><MEAN_ELEMENT_THEORY>SGP4</MEAN_ELEMENT_THEORY></metadata><data><meanElements><EPOCH>2024-11-25T02:37:34.982688</EPOCH><MEAN_MOTION>13.21824748</MEAN_MOTION><ECCENTRICITY>.0002033</ECCENTRICITY><INCLINATION>87.9308</INCLINATION><RA_OF_ASC_NODE>357.3294</RA_OF_ASC_NODE><ARG_OF_PERICENTER>96.6733</ARG_OF_PERICENTER><MEAN_ANOMALY>263.4632</MEAN_ANOMALY></meanElements><tleParameters><EPHEMERIS_TYPE>0</EPHEMERIS_TYPE><CLASSIFICATION_TYPE>U</CLASSIFICATION_TYPE><NORAD_CAT_ID>54675</NORAD_CAT_ID><ELEMENT_SET_NO>999</ELEMENT_SET_NO><REV_AT_EPOCH>9625</REV_AT_EPOCH><BSTAR>-.10105E-2</BSTAR><MEAN_MOTION_DOT>-.404E-5</MEAN_MOTION_DOT><MEAN_MOTION_DDOT>0</MEAN_MOTION_DDOT></tleParameters></data></segment></body></omm>
<omm id="CCSDS_OMM_VERS" version="2.0">
<header><CREATION_DATE/><ORIGINATOR/></header><body><segment><metadata><OBJECT_NAME>ONEWEB-0615</OBJECT_NAME><OBJECT_ID>2022-166AL</OBJECT_ID><CENTER_NAME>EARTH</CENTER_NAME><REF_FRAME>TEME</REF_FRAME><TIME_SYSTEM>UTC</TIME_SYSTEM><MEAN_ELEMENT_THEORY>SGP4</MEAN_ELEMENT_THEORY></metadata><data><meanElements><EPOCH>2024-11-25T02:10:20.936640</EPOCH><MEAN_MOTION>13.21824219</MEAN_MOTION><ECCENTRICITY>.0002131</ECCENTRICITY><INCLINATION>87.9306</INCLINATION><RA_OF_ASC_NODE>357.3584</RA_OF_ASC_NODE><ARG_OF_PERICENTER>97.4609</ARG_OF_PERICENTER><MEAN_ANOMALY>262.6767</MEAN_ANOMALY></meanElements><tleParameters><EPHEMERIS_TYPE>0</EPHEMERIS_TYPE><CLASSIFICATION_TYPE>U</CLASSIFICATION_TYPE><NORAD_CAT_ID>54676</NORAD_CAT_ID><ELEMENT_SET_NO>999</ELEMENT_SET_NO><REV_AT_EPOCH>9626</REV_AT_EPOCH><BSTAR>.35577E-3</BSTAR><MEAN_MOTION_DOT>.16E-5</MEAN_MOTION_DOT><MEAN_MOTION_DDOT>0</MEAN_MOTION_DDOT></tleParameters></data></segment></body></omm>
<omm id="CCSDS_OMM_VERS" version="2.0">
<header><CREATION_DATE/><ORIGINATOR/></header><body><segment><metadata><OBJECT_NAME>ONEWEB-0655</OBJECT_NAME><OBJECT_ID>2022-166AM</OBJECT_ID><CENTER_NAME>EARTH</CENTER_NAME><REF_FRAME>TEME</REF_FRAME><TIME_SYSTEM>UTC</TIME_SYSTEM><MEAN_ELEMENT_THEORY>SGP4</MEAN_ELEMENT_THEORY></metadata><data><meanElements><EPOCH>2024-11-25T12:25:45.984576</EPOCH><MEAN_MOTION>13.21824249</MEAN_MOTION><ECCENTRICITY>.0002216</ECCENTRICITY><INCLINATION>87.9310</INCLINATION><RA_OF_ASC_NODE>357.2768</RA_OF_ASC_NODE><ARG_OF_PERICENTER>89.9762</ARG_OF_PERICENTER><MEAN_ANOMALY>270.1626</MEAN_ANOMALY></meanElements><tleParameters><EPHEMERIS_TYPE>0</EPHEMERIS_TYPE><CLASSIFICATION_TYPE>U</CLASSIFICATION_TYPE><NORAD_CAT_ID>54677</NORAD_CAT_ID><ELEMENT_SET_NO>999</ELEMENT_SET_NO><REV_AT_EPOCH>9631</REV_AT_EPOCH><BSTAR>.6126E-3</BSTAR><MEAN_MOTION_DOT>.266E-5</MEAN_MOTION_DOT><MEAN_MOTION_DDOT>0</MEAN_MOTION_DDOT></tleParameters></data></segment></body></omm>
<omm id="CCSDS_OMM_VERS" version="2.0">
<header><CREATION_DATE/><ORIGINATOR/></header><body><segment><metadata><OBJECT_NAME>ONEWEB-0659</OBJECT_NAME><OBJECT_ID>2022-166AN</OBJECT_ID><CENTER_NAME>EARTH</CENTER_NAME><REF_FRAME>TEME</REF_FRAME><TIME_SYSTEM>UTC</TIME_SYSTEM><MEAN_ELEMENT_THEORY>SGP4</MEAN_ELEMENT_THEORY></metadata><data><meanElements><EPOCH>2024-11-25T12:50:44.909664</EPOCH><MEAN_MOTION>13.21826488</MEAN_MOTION><ECCENTRICITY>.0001682</ECCENTRICITY><INCLINATION>87.9308</INCLINATION><RA_OF_ASC_NODE>357.2769</RA_OF_ASC_NODE><ARG_OF_PERICENTER>98.0347</ARG_OF_PERICENTER><MEAN_ANOMALY>262.0978</MEAN_ANOMALY></meanElements><tleParameters><EPHEMERIS_TYPE>0</EPHEMERIS_TYPE><CLASSIFICATION_TYPE>U</CLASSIFICATION_TYPE><NORAD_CAT_ID>54678</NORAD_CAT_ID><ELEMENT_SET_NO>999</ELEMENT_SET_NO><REV_AT_EPOCH>9640</REV_AT_EPOCH><BSTAR>.34652E-4</BSTAR><MEAN_MOTION_DOT>.27E-6</MEAN_MOTION_DOT><MEAN_MOTION_DDOT>0</MEAN_MOTION_DDOT></tleParameters></data></segment></body></omm>

</ndm>
